BEIDOU-2 IGSO-1 (C06)   
1 36828U 10036A   24104.66071868 -.00000107  00000+0  00000+0 0  9997
2 36828  54.2447 170.1543 0040131 199.6198 174.1558  1.00245843 50247
BEIDOU-2 G4 (C04)       
1 37210U 10057A   24104.84118010 -.00000121  00000+0  00000+0 0  9993
2 37210   1.6926  67.7847 0004313 205.8320  31.6998  1.00273167 49320
BEIDOU-2 IGSO-2 (C07)   
1 37256U 10068A   24104.86158418 -.00000197  00000+0  00000+0 0  9996
2 37256  48.9979 281.5960 0032746 208.3366 130.9581  1.00270738 48829
BEIDOU-2 IGSO-3 (C08)   
1 37384U 11013A   24104.78907690 -.00000194  00000+0  00000+0 0  9991
2 37384  61.2658  47.7304 0025589 180.8131   6.8824  1.00274857 47699
BEIDOU-2 IGSO-4 (C09)   
1 37763U 11038A   24104.65458550 -.00000104  00000+0  00000+0 0  9992
2 37763  54.5510 172.7472 0123221 228.2412 133.2295  1.00272748 46680
BEIDOU-2 IGSO-5 (C10)   
1 37948U 11073A   24104.87673936 -.00000143  00000+0  00000+0 0  9990
2 37948  49.1289 281.2783 0094867 218.9454 112.7150  1.00265893 45161
BEIDOU-2 G5 (C05)       
1 38091U 12008A   24104.78194267  .00000048  00000+0  00000+0 0  9997
2 38091   1.9206  70.2669 0009592 259.5415 212.8148  1.00274141 44405
BEIDOU-2 M3 (C11)       
1 38250U 12018A   24103.96121591 -.00000092  00000+0  00000+0 0  9994
2 38250  56.3796 331.5107 0021080 267.3784  92.4175  1.86231293 81130
BEIDOU-2 M4 (C12)       
1 38251U 12018B   24103.89169398 -.00000091  00000+0  00000+0 0  9993
2 38251  56.2877 330.7896 0012076 273.5076  86.3911  1.86232050 81484
BEIDOU-2 M6 (C14)       
1 38775U 12050B   24104.13805858 -.00000003  00000+0  00000+0 0  9999
2 38775  55.8639  89.3356 0014784 330.7341  29.1680  1.86231125 78502
BEIDOU-2 G6 (C02)       
1 38953U 12059A   24104.90643762 -.00000185  00000+0  00000+0 0  9996
2 38953   2.3969  80.8926 0010741 303.7204 228.2456  1.00275093 41948
BEIDOU-3S IGSO-1S (C31) 
1 40549U 15019A   24104.02966116 -.00000166  00000+0  00000+0 0  9992
2 40549  50.6916 304.9531 0036281 191.3433 170.7147  1.00263299 33106
BEIDOU-3S M2S (C58)     
1 40748U 15037A   24104.09250514 -.00000090  00000+0  00000+0 0  9994
2 40748  55.5214 329.2443 0008099 262.5326  97.4101  1.86233207 59318
BEIDOU-3S M1S (C57)     
1 40749U 15037B   24104.36282343 -.00000090  00000+0  00000+0 0  9990
2 40749  55.5241 329.2219 0005591 356.8533   3.1778  1.86233001 59328
BEIDOU-3S IGSO-2S (C56) 
1 40938U 15053A   24104.86589667 -.00000136  00000+0  00000+0 0  9993
2 40938  50.4606 268.1484 0050329 187.4747 155.1488  1.00277362 31382
BEIDOU-2 IGSO-6 (C13)   
1 41434U 16021A   24104.88828310 -.00000168  00000+0  00000+0 0  9999
2 41434  59.0897  45.9968 0048868 225.2855 346.6645  1.00283202 29519
BEIDOU-2 G7 (C03)       
1 41586U 16037A   24104.85837103 -.00000363  00000+0  00000+0 0  9998
2 41586   1.7536  68.7797 0009052 322.7913 230.5024  1.00272408 28825
BEIDOU-3 M1 (C19)       
1 43001U 17069A   24103.36722063 -.00000005  00000+0  00000+0 0  9994
2 43001  56.0137  89.4484 0012577 301.4976  58.3640  1.86231385 43786
BEIDOU-3 M2 (C20)       
1 43002U 17069B   24102.76735354 -.00000006  00000+0  00000+0 0  9996
2 43002  56.0124  89.5051 0010250 319.2107  40.6975  1.86231012 43763
BEIDOU-3 M7 (C27)       
1 43107U 18003A   24104.12794404 -.00000092  00000+0  00000+0 0  9999
2 43107  54.9790 329.8625 0005103  62.1227 297.9637  1.86232415 42545
BEIDOU-3 M8 (C28)       
1 43108U 18003B   24104.06784101 -.00000092  00000+0  00000+0 0  9996
2 43108  54.9716 329.8503 0002645 278.6974  81.3073  1.86230893 42558
BEIDOU-3 M4 (C22)       
1 43207U 18018A   24104.50918808  .00000000  00000+0  00000+0 0  9992
2 43207  55.9734  89.5017 0007335 338.2722  21.6824  1.86231371 41949
BEIDOU-3 M3 (C21)       
1 43208U 18018B   24104.57575279  .00000000  00000+0  00000+0 0  9991
2 43208  55.9731  89.5037 0010317 310.9462  48.9503  1.86231395 41943
BEIDOU-3 M9 (C29)       
1 43245U 18029A   24104.26063460 -.00000088  00000+0  00000+0 0  9991
2 43245  54.8643 327.5712 0000835  18.8430 341.1928  1.86232639 41099
BEIDOU-3 M10 (C30)      
1 43246U 18029B   24104.19039392 -.00000088  00000+0  00000+0 0  9991
2 43246  54.8622 327.6023 0004821  14.7271 345.3198  1.86232823 41078
BEIDOU-2 IGSO-7 (C16)   
1 43539U 18057A   24104.65518045 -.00000125  00000+0  00000+0 0  9997
2 43539  55.1341 169.9317 0073696 232.6235 148.7533  1.00272762 21174
BEIDOU-3 M5 (C23)       
1 43581U 18062A   24103.87544805 -.00000002  00000+0  00000+0 0  9990
2 43581  54.1407 209.3584 0002798 277.8904  82.0892  1.86228653 38829
BEIDOU-3 M6 (C24)       
1 43582U 18062B   24103.20464181  .00000005  00000+0  00000+0 0  9998
2 43582  54.1404 209.3708 0004744  27.9860 332.0496  1.86229389 38817
BEIDOU-3 M12 (C26)      
1 43602U 18067A   24104.21262563 -.00000007  00000+0  00000+0 0  9991
2 43602  54.2297 208.0122 0007074  26.2832 333.7666  1.86231692 38319
BEIDOU-3 M11 (C25)      
1 43603U 18067B   24103.80957958 -.00000002  00000+0  00000+0 0  9990
2 43603  54.2272 207.9910 0003854  17.7615 342.2658  1.86231577 38332
BEIDOU-3 M13 (C32)      
1 43622U 18072A   24103.76999686 -.00000005  00000+0  00000+0 0  9999
2 43622  55.9436  89.0603 0009074 299.0784  60.8150  1.86231336 37841
BEIDOU-3 M14 (C33)      
1 43623U 18072B   24103.63544947 -.00000005  00000+0  00000+0 0  9992
2 43623  55.9454  89.0578 0006763 317.9880  41.9442  1.86231380 37834
BEIDOU-3 M16 (C35)      
1 43647U 18078A   24104.33553141 -.00000089  00000+0  00000+0 0  9990
2 43647  54.7609 327.6731 0008134  19.1848 340.8785  1.86232289 37357
BEIDOU-3 M15 (C34)      
1 43648U 18078B   24103.92775630 -.00000089  00000+0  00000+0 0  9994
2 43648  54.7569 327.6904 0005244  29.1467 330.9157  1.86232194 37361
BEIDOU-3 G1 (C59)       
1 43683U 18085A   24104.83726409 -.00000287  00000+0  00000+0 0  9992
2 43683   2.0347 112.1588 0003372 340.7890 191.0197  1.00273955 20095
BEIDOU-3 M17 (C36)      
1 43706U 18093A   24104.61405128 -.00000012  00000+0  00000+0 0  9991
2 43706  54.2233 209.2670 0008004 281.4177  78.5041  1.86228326 36742
BEIDOU-3 M18 (C37)      
1 43707U 18093B   24103.94294567 -.00000003  00000+0  00000+0 0  9990
2 43707  54.2242 209.2815 0006323 314.6808  45.2793  1.86229752 36723
BEIDOU-3 IGSO-1 (C38)   
1 44204U 19023A   24104.78803124 -.00000225  00000+0  00000+0 0  9991
2 44204  57.5533  45.8959 0019353 215.3078 344.2130  1.00268548 18371
BEIDOU-2 G8 (C01)       
1 44231U 19027A   24104.83813432 -.00000257  00000+0  00000+0 0  9999
2 44231   1.7906  73.4507 0003081 181.2464  34.0055  1.00275245 18117
BEIDOU-3 IGSO-2 (C39)   
1 44337U 19035A   24104.61238257 -.00000125  00000+0  00000+0 0  9991
2 44337  55.1680 165.8343 0032907 207.5657 168.2007  1.00261333 17732
BEIDOU-3 M24 (C46)      
1 44542U 19061A   24101.32820852  .00000012  00000+0  00000+0 0  9995
2 44542  54.4512 209.6517 0007339 359.7363   0.2648  1.86231072 30935
BEIDOU-3 M23 (C45)      
1 44543U 19061B   24104.22638920 -.00000006  00000+0  00000+0 0  9995
2 44543  54.4494 209.5226 0004220 345.0646  70.2074  1.86231550 30996
BEIDOU-3 IGSO-3 (C40)   
1 44709U 19073A   24103.91165353 -.00000180  00000+0  00000+0 0  9995
2 44709  56.1614 289.4111 0036598 179.6052 180.3401  1.00269437 16484
BEIDOU-3 M22 (C44)      
1 44793U 19078A   24102.24796729 -.00000087  00000+0  00000+0 0  9991
2 44793  54.6102 327.6858 0007155  25.9891 334.0838  1.86232013 29802
BEIDOU-3 M21 (C43)      
1 44794U 19078B   24103.98876275 -.00000089  00000+0  00000+0 0  9991
2 44794  54.5825 327.6027 0005020  19.7154 340.3368  1.86232629 29849
BEIDOU-3 M19 (C41)      
1 44864U 19090A   24104.19525727 -.00000003  00000+0  00000+0 0  9996
2 44864  55.8782  89.2200 0019846 282.7071  48.8775  1.86231680 29420
BEIDOU-3 M20 (C42)      
1 44865U 19090B   24103.83328789 -.00000004  00000+0  00000+0 0  9997
2 44865  55.8797  89.2654 0017766 294.5518 244.1006  1.86231612 29407
BEIDOU-3 G2 (C60)       
1 45344U 20017A   24104.90445360 -.00000151  00000+0  00000+0 0  9998
2 45344   2.2421  27.0200 0001202 317.7666 263.4251  1.00271477 15294
BEIDOU-3 G3 (C61)       
1 45807U 20040A   24104.85837101 -.00000364  00000+0  00000+0 0  9996
2 45807   0.6805  32.8394 0005947 299.5140 289.6325  1.00277916 14103
BEIDOU-3 G4             
1 56564U 23066A   24104.84118010 -.00000123  00000+0  00000+0 0  9992
2 56564   2.2838 288.2196 0003548 190.7279 186.4117  1.00272687  3433
BEIDOU-3 M25            
1 58654U 23207A   24104.07140422 -.00000005  00000+0  00000+0 0  9997
2 58654  55.0603  89.2861 0005017 290.7802  69.1512  1.86232243  2034
BEIDOU-3 M26            
1 58655U 23207B   24104.40718234 -.00000004  00000+0  00000+0 0  9996
2 58655  55.0623  89.2601 0005612 276.2127  83.7091  1.86231786  2023
